[
    {
        "Altitude(m)": 568688.9983031722,
        "Argument of Periapsis(deg)": 0.019868973332140504,
        "Eccentricity": 0.0,
        "Inclination(deg)": 53.0,
        "Latitude(deg)": -45.2576420962478,
        "Longitude(deg)": -86.51108213371319,
        "Mean Anomaly(deg)": -62.45242139726722,
        "RAAN(deg)": 64.97043010558406,
        "Satellite Name": "Starlink Shell 1 302",
        "Satellite Number": 302,
        "Semi-Major Axis(m)": 6931778.249405717,
        "Time(s)": 570
    },
    {
        "Altitude(m)": 568553.67182042,
        "Argument of Periapsis(deg)": 0.02021755181165174,
        "Eccentricity": 0.0,
        "Inclination(deg)": 53.0,
        "Latitude(deg)": -44.928028137848095,
        "Longitude(deg)": -85.80155125812469,
        "Mean Anomaly(deg)": -61.82559019371052,
        "RAAN(deg)": 64.96991133550658,
        "Satellite Name": "Starlink Shell 1 302",
        "Satellite Number": 302,
        "Semi-Major Axis(m)": 6931778.249405717,
        "Time(s)": 580
    },
    {
        "Altitude(m)": 568416.1692078399,
        "Argument of Periapsis(deg)": 0.020566130291162974,
        "Eccentricity": 0.0,
        "Inclination(deg)": 53.0,
        "Latitude(deg)": -44.59351010165853,
        "Longitude(deg)": -85.10060127393389,
        "Mean Anomaly(deg)": -61.198758990153806,
        "RAAN(deg)": 64.9693925654291,
        "Satellite Name": "Starlink Shell 1 302",
        "Satellite Number": 302,
        "Semi-Major Axis(m)": 6931778.249405717,
        "Time(s)": 590
    },
    {
        "Altitude(m)": 568276.5446036314,
        "Argument of Periapsis(deg)": 0.020914708770674213,
        "Eccentricity": 0.0,
        "Inclination(deg)": 53.0,
        "Latitude(deg)": -44.254198463156555,
        "Longitude(deg)": -84.40815748123957,
        "Mean Anomaly(deg)": -60.57192778659708,
        "RAAN(deg)": 64.96887379535164,
        "Satellite Name": "Starlink Shell 1 302",
        "Satellite Number": 302,
        "Semi-Major Axis(m)": 6931778.249405717,
        "Time(s)": 600
    },
    {
        "Altitude(m)": 568134.8529430926,
        "Argument of Periapsis(deg)": 0.021263287250185448,
        "Eccentricity": 0.0,
        "Inclination(deg)": 53.0,
        "Latitude(deg)": -43.91020207750774,
        "Longitude(deg)": -83.7241397114549,
        "Mean Anomaly(deg)": -59.94509658304039,
        "RAAN(deg)": 64.96835502527416,
        "Satellite Name": "Starlink Shell 1 302",
        "Satellite Number": 302,
        "Semi-Major Axis(m)": 6931778.249405717,
        "Time(s)": 610
    },
    {
        "Altitude(m)": 567991.1499344911,
        "Argument of Periapsis(deg)": 0.021611865729696686,
        "Eccentricity": 0.0,
        "Inclination(deg)": 53.0,
        "Latitude(deg)": -43.56162813092396,
        "Longitude(deg)": -83.04846227148313,
        "Mean Anomaly(deg)": -59.318265379483634,
        "RAAN(deg)": 64.96783625519669,
        "Satellite Name": "Starlink Shell 1 302",
        "Satellite Number": 302,
        "Semi-Major Axis(m)": 6931778.249405717,
        "Time(s)": 620
    },
    {
        "Altitude(m)": 567845.4920345233,
        "Argument of Periapsis(deg)": 0.02196044420920792,
        "Eccentricity": 0.0,
        "Inclination(deg)": 53.0,
        "Latitude(deg)": -43.20858209922052,
        "Longitude(deg)": -82.38103555161308,
        "Mean Anomaly(deg)": -58.69143417592696,
        "RAAN(deg)": 64.96731748511921,
        "Satellite Name": "Starlink Shell 1 302",
        "Satellite Number": 302,
        "Semi-Major Axis(m)": 6931778.249405717,
        "Time(s)": 630
    },
    {
        "Altitude(m)": 567697.9364234556,
        "Argument of Periapsis(deg)": 0.02230902268871916,
        "Eccentricity": 0.0,
        "Inclination(deg)": 53.0,
        "Latitude(deg)": -42.8511677131555,
        "Longitude(deg)": -81.72176509421718,
        "Mean Anomaly(deg)": -58.06460297237027,
        "RAAN(deg)": 64.96679871504175,
        "Satellite Name": "Starlink Shell 1 302",
        "Satellite Number": 302,
        "Semi-Major Axis(m)": 6931778.249405717,
        "Time(s)": 640
    },
    {
        "Altitude(m)": 567548.5409799172,
        "Argument of Periapsis(deg)": 0.022657601168230398,
        "Eccentricity": 0.0,
        "Inclination(deg)": 53.0,
        "Latitude(deg)": -42.489486930139485,
        "Longitude(deg)": -81.07055316585335,
        "Mean Anomaly(deg)": -57.43777176881349,
        "RAAN(deg)": 64.96627994496427,
        "Satellite Name": "Starlink Shell 1 302",
        "Satellite Number": 302,
        "Semi-Major Axis(m)": 6931778.249405717,
        "Time(s)": 650
    },
    {
        "Altitude(m)": 567397.3642553911,
        "Argument of Periapsis(deg)": 0.023006179647741636,
        "Eccentricity": 0.0,
        "Inclination(deg)": 53.0,
        "Latitude(deg)": -42.123639911907695,
        "Longitude(deg)": -80.42729863015497,
        "Mean Anomaly(deg)": -56.81094056525683,
        "RAAN(deg)": 64.9657611748868,
        "Satellite Name": "Starlink Shell 1 302",
        "Satellite Number": 302,
        "Semi-Major Axis(m)": 6931778.249405717,
        "Time(s)": 660
    },
    {
        "Altitude(m)": 567244.4654483505,
        "Argument of Periapsis(deg)": 0.023354758127252868,
        "Eccentricity": 0.0,
        "Inclination(deg)": 53.0,
        "Latitude(deg)": -41.75372500775535,
        "Longitude(deg)": -79.79189680243249,
        "Mean Anomaly(deg)": -56.18410936170003,
        "RAAN(deg)": 64.96524240480933,
        "Satellite Name": "Starlink Shell 1 302",
        "Satellite Number": 302,
        "Semi-Major Axis(m)": 6931778.249405717,
        "Time(s)": 670
    },
    {
        "Altitude(m)": 567089.9043781346,
        "Argument of Periapsis(deg)": 0.023703336606764106,
        "Eccentricity": 0.0,
        "Inclination(deg)": 53.0,
        "Latitude(deg)": -41.37983874294906,
        "Longitude(deg)": -79.16424079892842,
        "Mean Anomaly(deg)": -55.55727815814336,
        "RAAN(deg)": 64.96472363473185,
        "Satellite Name": "Starlink Shell 1 302",
        "Satellite Number": 302,
        "Semi-Major Axis(m)": 6931778.249405717,
        "Time(s)": 680
    },
    {
        "Altitude(m)": 566933.7414585205,
        "Argument of Periapsis(deg)": 0.024051915086275345,
        "Eccentricity": 0.0,
        "Inclination(deg)": 53.0,
        "Latitude(deg)": -41.00207581193406,
        "Longitude(deg)": -78.5442213551335,
        "Mean Anomaly(deg)": -54.93044695458671,
        "RAAN(deg)": 64.96420486465438,
        "Satellite Name": "Starlink Shell 1 302",
        "Satellite Number": 302,
        "Semi-Major Axis(m)": 6931778.249405717,
        "Time(s)": 690
    },
    {
        "Altitude(m)": 566776.0376709941,
        "Argument of Periapsis(deg)": 0.024400493565786583,
        "Eccentricity": 0.0,
        "Inclination(deg)": 53.0,
        "Latitude(deg)": -40.62052907597532,
        "Longitude(deg)": -77.93172662629583,
        "Mean Anomaly(deg)": -54.3036157510299,
        "RAAN(deg)": 64.96368609457691,
        "Satellite Name": "Starlink Shell 1 302",
        "Satellite Number": 302,
        "Semi-Major Axis(m)": 6931778.249405717,
        "Time(s)": 700
    },
    {
        "Altitude(m)": 566616.8545377861,
        "Argument of Periapsis(deg)": 0.024749072045297815,
        "Eccentricity": 0.0,
        "Inclination(deg)": 53.0,
        "Latitude(deg)": -40.23528956488017,
        "Longitude(deg)": -77.32664348332405,
        "Mean Anomaly(deg)": -53.67678454747324,
        "RAAN(deg)": 64.96316732449944,
        "Satellite Name": "Starlink Shell 1 302",
        "Satellite Number": 302,
        "Semi-Major Axis(m)": 6931778.249405717,
        "Time(s)": 710
    },
    {
        "Altitude(m)": 566456.2540946134,
        "Argument of Periapsis(deg)": 0.025097650524809053,
        "Eccentricity": 0.0,
        "Inclination(deg)": 53.0,
        "Latitude(deg)": -39.84644648246577,
        "Longitude(deg)": -76.728857278722,
        "Mean Anomaly(deg)": -53.04995334391647,
        "RAAN(deg)": 64.96264855442196,
        "Satellite Name": "Starlink Shell 1 302",
        "Satellite Number": 302,
        "Semi-Major Axis(m)": 6931778.249405717,
        "Time(s)": 720
    },
    {
        "Altitude(m)": 566294.298863217,
        "Argument of Periapsis(deg)": 0.02544622900432029,
        "Eccentricity": 0.0,
        "Inclination(deg)": 53.0,
        "Latitude(deg)": -39.454087215451544,
        "Longitude(deg)": -76.13825159588073,
        "Mean Anomaly(deg)": -52.42312214035977,
        "RAAN(deg)": 64.9621297843445,
        "Satellite Name": "Starlink Shell 1 302",
        "Satellite Number": 302,
        "Semi-Major Axis(m)": 6931778.249405717,
        "Time(s)": 730
    },
    {
        "Altitude(m)": 566131.0518236407,
        "Argument of Periapsis(deg)": 0.02579480748383153,
        "Eccentricity": 0.0,
        "Inclination(deg)": 53.0,
        "Latitude(deg)": -39.05829734546916,
        "Longitude(deg)": -75.55470949508764,
        "Mean Anomaly(deg)": -51.7962909368031,
        "RAAN(deg)": 64.96161101426702,
        "Satellite Name": "Starlink Shell 1 302",
        "Satellite Number": 302,
        "Semi-Major Axis(m)": 6931778.249405717,
        "Time(s)": 740
    },
    {
        "Altitude(m)": 565966.576386289,
        "Argument of Periapsis(deg)": 0.026143385963342765,
        "Eccentricity": 0.0,
        "Inclination(deg)": 53.0,
        "Latitude(deg)": -38.65916066390067,
        "Longitude(deg)": -74.97811323102992,
        "Mean Anomaly(deg)": -51.16945973324635,
        "RAAN(deg)": 64.96109224418954,
        "Satellite Name": "Starlink Shell 1 302",
        "Satellite Number": 302,
        "Semi-Major Axis(m)": 6931778.249405717,
        "Time(s)": 750
    }
]